{"type": "FeatureCollection", "features": [ {"type": "Feature", "properties": {"norad_id": 37867, "name": "COSMOS 2476 (744)", "group": "gnss", "lat": -16.400658655240935, "lon": 71.18798969798922, "alt_km": 19150.52668147583, "timestamp": "2025-12-17T19:34:08.280907+00:00", "meta": {"OBJECT_NAME": "COSMOS 2476 (744)", "OBJECT_ID": "2011-064A", "EPOCH": "2025-12-17T08:37:38.728128", "MEAN_MOTION": 2.13103706, "ECCENTRICITY": 0.0024378, "INCLINATION": 65.1645, "RA_OF_ASC_NODE": 79.0153, "ARG_OF_PERICENTER": 234.8774, "MEAN_ANOMALY": 116.9996, "EPHEMERIS_TYPE": 0, "CLASSIFICATION_TYPE": "U", "NORAD_CAT_ID": 37867, "ELEMENT_SET_NO": 999, "REV_AT_EPOCH": 10988, "BSTAR": 0, "MEAN_MOTION_DOT": -4.8e-07, "MEAN_MOTION_DDOT": 0}, "tle": {"line1": "1 37867U 11064A   25351.35947602 -.00000048  00000+0  00000+0 0  9996", "line2": "2 37867  65.1645  79.0153 0024378 234.8774 116.9996  2.13103706109884"}}, "geometry": {"type": "Point", "coordinates": [71.18798969798922, -16.400658655240935]}}, {"type": "Feature", "properties": {"norad_id": 37868, "name": "COSMOS 2477 (745)", "group": "gnss", "lat": 15.97490587310309, "lon": -108.51693478266662, "alt_km": 19111.639216107604, "timestamp": "2025-12-17T19:34:08.280919+00:00", "meta": {"OBJECT_NAME": "COSMOS 2477 (745)", "OBJECT_ID": "2011-064B", "EPOCH": "2025-12-15T06:06:12.573216", "MEAN_MOTION": 2.1310289, "ECCENTRICITY": 0.00211455, "INCLINATION": 65.1707, "RA_OF_ASC_NODE": 79.1637, "ARG_OF_PERICENTER": 234.5873, "MEAN_ANOMALY": 123.1925, "EPHEMERIS_TYPE": 0, "CLASSIFICATION_TYPE": "U", "NORAD_CAT_ID": 37868, "ELEMENT_SET_NO": 999, "REV_AT_EPOCH": 10983, "BSTAR": 0, "MEAN_MOTION_DOT": -5.6e-07, "MEAN_MOTION_DDOT": 0}, "tle": {"line1": "1 37868U 11064B   25349.25431219 -.00000056  00000+0  00000+0 0  9994", "line2": "2 37868  65.1707  79.1637 0021145 234.5873 123.1925  2.13102890109838"}}, "geometry": {"type": "Point", "coordinates": [-108.51693478266662, 15.97490587310309]}}, {"type": "Feature", "properties": {"norad_id": 37869, "name": "COSMOS 2475 (743)", "group": "gnss", "lat": 53.0925115829208, "lon": -138.8582092534177, "alt_km": 19167.439245155332, "timestamp": "2025-12-17T19:34:08.280938+00:00", "meta": {"OBJECT_NAME": "COSMOS 2475 (743)", "OBJECT_ID": "2011-064C", "EPOCH": "2025-12-16T17:15:16.173216", "MEAN_MOTION": 2.1310159, "ECCENTRICITY": 0.00263578, "INCLINATION": 65.1784, "RA_OF_ASC_NODE": 79.1342, "ARG_OF_PERICENTER": 248.7608, "MEAN_ANOMALY": 108.5583, "EPHEMERIS_TYPE": 0, "CLASSIFICATION_TYPE": "U", "NORAD_CAT_ID": 37869, "ELEMENT_SET_NO": 999, "REV_AT_EPOCH": 10987, "BSTAR": 0, "MEAN_MOTION_DOT": -5.2e-07, "MEAN_MOTION_DDOT": 0}, "tle": {"line1": "1 37869U 11064C   25350.71893719 -.00000052  00000+0  00000+0 0  9991", "line2": "2 37869  65.1784  79.1342 0026357 248.7608 108.5583  2.13101590109877"}}, "geometry": {"type": "Point", "coordinates": [-138.8582092534177, 53.0925115829208]}}, {"type": "Feature", "properties": {"norad_id": 37948, "name": "BEIDOU-2 IGSO-5 (C10)", "group": "gnss", "lat": -14.171197809374478, "lon": 106.88632899630933, "alt_km": 35356.59168848358, "timestamp": "2025-12-17T19:34:08.280951+00:00", "meta": {"OBJECT_NAME": "BEIDOU-2 IGSO-5 (C10)", "OBJECT_ID": "2011-073A", "EPOCH": "2025-12-16T20:45:03.347712", "MEAN_MOTION": 1.00290524, "ECCENTRICITY": 0.01100285, "INCLINATION": 48.0123, "RA_OF_ASC_NODE": 273.8075, "ARG_OF_PERICENTER": 222.3616, "MEAN_ANOMALY": 354.0663, "EPHEMERIS_TYPE": 0, "CLASSIFICATION_TYPE": "U", "NORAD_CAT_ID": 37948, "ELEMENT_SET_NO": 999, "REV_AT_EPOCH": 5130, "BSTAR": 0, "MEAN_MOTION_DOT": -1.89e-06, "MEAN_MOTION_DDOT": 0}, "tle": {"line1": "1 37948U 11073A   25350.86462208 -.00000189  00000+0  00000+0 0  9991", "line2": "2 37948  48.0123 273.8075 0110028 222.3616 354.0663  1.00290524 51306"}}, "geometry": {"type": "Point", "coordinates": [106.88632899630933, -14.171197809374478]}}, {"type": "Feature", "properties": {"norad_id": 37951, "name": "LUCH 5A (SDCM/PRN 140)", "group": "gnss", "lat": 7.746758028550303, "lon": -172.50368584736856, "alt_km": 35777.19638299158, "timestamp": "2025-12-17T19:34:08.280963+00:00", "meta": {"OBJECT_NAME": "LUCH 5A (SDCM/PRN 140)", "OBJECT_ID": "2011-074B", "EPOCH": "2025-12-16T12:21:38.678400", "MEAN_MOTION": 1.0027572, "ECCENTRICITY": 0.00053409, "INCLINATION": 8.2891, "RA_OF_ASC_NODE": 76.531, "ARG_OF_PERICENTER": 183.3714, "MEAN_ANOMALY": 178.0263, "EPHEMERIS_TYPE": 0, "CLASSIFICATION_TYPE": "U", "NORAD_CAT_ID": 37951, "ELEMENT_SET_NO": 999, "REV_AT_EPOCH": 5122, "BSTAR": 0, "MEAN_MOTION_DOT": -3e-07, "MEAN_MOTION_DDOT": 0}, "tle": {"line1": "1 37951U 11074B   25350.51503100 -.00000030  00000+0  00000+0 0  9990", "line2": "2 37951   8.2891  76.5310 0005340 183.3714 178.0263  1.00275720 51227"}}, "geometry": {"type": "Point", "coordinates": [-172.50368584736856, 7.746758028550303]}}, {"type": "Feature", "properties": {"norad_id": 38091, "name": "BEIDOU-2 G5 (C05)", "group": "gnss", "lat": 0.4827787321730301, "lon": 79.10471529503097, "alt_km": 35827.58309059267, "timestamp": "2025-12-17T19:34:08.280976+00:00", "meta": {"OBJECT_NAME": "BEIDOU-2 G5 (C05)", "OBJECT_ID": "2012-008A", "EPOCH": "2025-12-16T15:20:55.893984", "MEAN_MOTION": 1.00267602, "ECCENTRICITY": 0.00130267, "INCLINATION": 3.1186, "RA_OF_ASC_NODE": 70.7002, "ARG_OF_PERICENTER": 231.2097, "MEAN_ANOMALY": 72.6715, "EPHEMERIS_TYPE": 0, "CLASSIFICATION_TYPE": "U", "NORAD_CAT_ID": 38091, "ELEMENT_SET_NO": 999, "REV_AT_EPOCH": 5053, "BSTAR": 0, "MEAN_MOTION_DOT": 7.8e-07, "MEAN_MOTION_DDOT": 0}, "tle": {"line1": "1 38091U 12008A   25350.63953581  .00000078  00000+0  00000+0 0  9990", "line2": "2 38091   3.1186  70.7002 0013026 231.2097  72.6715  1.00267602 50539"}}, "geometry": {"type": "Point", "coordinates": [79.10471529503097, 0.4827787321730301]}}, {"type": "Feature", "properties": {"norad_id": 38250, "name": "BEIDOU-2 M3 (C11)", "group": "gnss", "lat": 54.474205307019865, "lon": 22.35096420198181, "alt_km": 21587.28709403665, "timestamp": "2025-12-17T19:34:08.280991+00:00", "meta": {"OBJECT_NAME": "BEIDOU-2 M3 (C11)", "OBJECT_ID": "2012-018A", "EPOCH": "2025-12-17T03:50:10.570848", "MEAN_MOTION": 1.86229929, "ECCENTRICITY": 0.00242921, "INCLINATION": 55.916, "RA_OF_ASC_NODE": 311.0083, "ARG_OF_PERICENTER": 274.6123, "MEAN_ANOMALY": 85.0955, "EPHEMERIS_TYPE": 0, "CLASSIFICATION_TYPE": "U", "NORAD_CAT_ID": 38250, "ELEMENT_SET_NO": 999, "REV_AT_EPOCH": 9255, "BSTAR": 0, "MEAN_MOTION_DOT": -9.2e-07, "MEAN_MOTION_DDOT": 0}, "tle": {"line1": "1 38250U 12018A   25351.15984457 -.00000092  00000+0  00000+0 0  9999", "line2": "2 38250  55.9160 311.0083 0024292 274.6123  85.0955  1.86229929 92557"}}, "geometry": {"type": "Point", "coordinates": [22.35096420198181, 54.474205307019865]}}, {"type": "Feature", "properties": {"norad_id": 38251, "name": "BEIDOU-2 M4 (C12)", "group": "gnss", "lat": 42.77323123009432, "lon": 91.26819743560506, "alt_km": 21561.568372106005, "timestamp": "2025-12-17T19:34:08.281002+00:00", "meta": {"OBJECT_NAME": "BEIDOU-2 M4 (C12)", "OBJECT_ID": "2012-018B", "EPOCH": "2025-12-17T02:12:20.700000", "MEAN_MOTION": 1.86229502, "ECCENTRICITY": 0.00154788, "INCLINATION": 55.8177, "RA_OF_ASC_NODE": 310.2391, "ARG_OF_PERICENTER": 277.6479, "MEAN_ANOMALY": 82.1616, "EPHEMERIS_TYPE": 0, "CLASSIFICATION_TYPE": "U", "NORAD_CAT_ID": 38251, "ELEMENT_SET_NO": 999, "REV_AT_EPOCH": 9255, "BSTAR": 0, "MEAN_MOTION_DOT": -9.2e-07, "MEAN_MOTION_DDOT": 0}, "tle": {"line1": "1 38251U 12018B   25351.09190625 -.00000092  00000+0  00000+0 0  9999", "line2": "2 38251  55.8177 310.2391 0015478 277.6479  82.1616  1.86229502 92550"}}, "geometry": {"type": "Point", "coordinates": [91.26819743560506, 42.77323123009432]}}, {"type": "Feature", "properties": {"norad_id": 38652, "name": "SES-5 (EGNOS/PRN 136)", "group": "gnss", "lat": 0.07329053613804856, "lon": 25.213891811272415, "alt_km": 35789.971659111354, "timestamp": "2025-12-17T19:34:08.281014+00:00", "meta": {"OBJECT_NAME": "SES-5 (EGNOS/PRN 136)", "OBJECT_ID": "2012-036A", "EPOCH": "2025-12-16T21:56:27.413952", "MEAN_MOTION": 1.0027208, "ECCENTRICITY": 0.00019338, "INCLINATION": 0.0585, "RA_OF_ASC_NODE": 304.6668, "ARG_OF_PERICENTER": 321.0083, "MEAN_ANOMALY": 154.2216, "EPHEMERIS_TYPE": 0, "CLASSIFICATION_TYPE": "U", "NORAD_CAT_ID": 38652, "ELEMENT_SET_NO": 999, "REV_AT_EPOCH": 4263, "BSTAR": 0, "MEAN_MOTION_DOT": 5.8e-07, "MEAN_MOTION_DDOT": 0}, "tle": {"line1": "1 38652U 12036A   25350.91420618  .00000058  00000+0  00000+0 0  9993", "line2": "2 38652   0.0585 304.6668 0001933 321.0083 154.2216  1.00272080 42636"}}, "geometry": {"type": "Point", "coordinates": [25.213891811272415, 0.07329053613804856]}}, {"type": "Feature", "properties": {"norad_id": 38775, "name": "BEIDOU-2 M6 (C14)", "group": "gnss", "lat": -33.279652877509804, "lon": 43.06363312235641, "alt_km": 21503.592748834228, "timestamp": "2025-12-17T19:34:08.281026+00:00", "meta": {"OBJECT_NAME": "BEIDOU-2 M6 (C14)", "OBJECT_ID": "2012-050B", "EPOCH": "2025-12-16T06:22:47.654112", "MEAN_MOTION": 1.86230757, "ECCENTRICITY": 0.00113185, "INCLINATION": 56.3814, "RA_OF_ASC_NODE": 68.9504, "ARG_OF_PERICENTER": 343.5807, "MEAN_ANOMALY": 16.4038, "EPHEMERIS_TYPE": 0, "CLASSIFICATION_TYPE": "U", "NORAD_CAT_ID": 38775, "ELEMENT_SET_NO": 999, "REV_AT_EPOCH": 8990, "BSTAR": 0, "MEAN_MOTION_DOT": -8e-07, "MEAN_MOTION_DDOT": 0}, "tle": {"line1": "1 38775U 12050B   25350.26582933 -.00000080  00000+0  00000+0 0  9998", "line2": "2 38775  56.3814  68.9504 0011318 343.5807  16.4038  1.86230757 89902"}}, "geometry": {"type": "Point", "coordinates": [43.06363312235641, -33.279652877509804]}}]}